[{"OBJECT_NAME":"TIANMU-1 09","OBJECT_ID":"2023-101C","EPOCH":"2026-03-09T22:17:34.703232","MEAN_MOTION":15.29080822,"ECCENTRICITY":0.00049013,"INCLINATION":97.267,"RA_OF_ASC_NODE":121.1263,"ARG_OF_PERICENTER":139.4293,"MEAN_ANOMALY":220.7314,"EPHEMERIS_TYPE":0,"CLASSIFICATION_TYPE":"U","NORAD_CAT_ID":57401,"ELEMENT_SET_NO":999,"REV_AT_EPOCH":14647,"BSTAR":0.00030540035,"MEAN_MOTION_DOT":8.553e-5,"MEAN_MOTION_DDOT":0},{"OBJECT_NAME":"STARLINK-32546","OBJECT_ID":"2024-222W","EPOCH":"2026-03-09T12:54:43.764192","MEAN_MOTION":15.27587305,"ECCENTRICITY":0.00014891,"INCLINATION":42.9997,"RA_OF_ASC_NODE":133.7635,"ARG_OF_PERICENTER":270.8026,"MEAN_ANOMALY":89.2655,"EPHEMERIS_TYPE":0,"CLASSIFICATION_TYPE":"U","NORAD_CAT_ID":62134,"ELEMENT_SET_NO":999,"REV_AT_EPOCH":7265,"BSTAR":0.00084572994,"MEAN_MOTION_DOT":0.00023089,"MEAN_MOTION_DDOT":0}]
